[{"OBJECT_NAME":"ONEWEB-0656","OBJECT_ID":"2023-029X","EPOCH":"2026-03-09T15:49:54.776064","MEAN_MOTION":13.20770703,"ECCENTRICITY":0.0001393,"INCLINATION":87.9171,"RA_OF_ASC_NODE":294.3009,"ARG_OF_PERICENTER":70.4706,"MEAN_ANOMALY":289.6578,"EPHEMERIS_TYPE":0,"CLASSIFICATION_TYPE":"U","NORAD_CAT_ID":55817,"ELEMENT_SET_NO":999,"REV_AT_EPOCH":14801,"BSTAR":-0.00029553547,"MEAN_MOTION_DOT":-1.07e-6,"MEAN_MOTION_DDOT":0},{"OBJECT_NAME":"UNKNOWN","OBJECT_ID":"","EPOCH":"2026-03-07T04:31:16.399200","MEAN_MOTION":13.41193905,"ECCENTRICITY":0.0238397,"INCLINATION":99.7799,"RA_OF_ASC_NODE":151.8941,"ARG_OF_PERICENTER":35.0928,"MEAN_ANOMALY":355.2182,"EPHEMERIS_TYPE":0,"CLASSIFICATION_TYPE":"U","NORAD_CAT_ID":82529,"ELEMENT_SET_NO":999,"REV_AT_EPOCH":60106,"BSTAR":0.00063177,"MEAN_MOTION_DOT":3.72e-6,"MEAN_MOTION_DDOT":0}]
